{"fetched_at":"2026-07-15T06:35:37.596Z","source":"https://celestrak.org/NORAD/elements/gp.php?GROUP=planet&FORMAT=JSON","constellation":"superdove","records":[{"OBJECT_NAME":"FLOCK 4BE-17","OBJECT_ID":"2024-149AA","EPOCH":"2026-07-14T18:25:45.523200","CLASSIFICATION_TYPE":"U","MEAN_MOTION":15.40562129,"ECCENTRICITY":0.0004412,"INCLINATION":97.3775,"RA_OF_ASC_NODE":279.3683,"ARG_OF_PERICENTER":147.9048,"MEAN_ANOMALY":212.2467,"EPHEMERIS_TYPE":0,"NORAD_CAT_ID":60492,"ELEMENT_SET_NO":999,"REV_AT_EPOCH":10650,"BSTAR":0.0002325691,"MEAN_MOTION_DOT":0.0000937,"MEAN_MOTION_DDOT":0},{"OBJECT_NAME":"FLOCK 4BE-22","OBJECT_ID":"2024-149AC","EPOCH":"2026-07-14T18:56:38.307264","CLASSIFICATION_TYPE":"U","MEAN_MOTION":15.41978086,"ECCENTRICITY":0.00046599,"INCLINATION":97.3735,"RA_OF_ASC_NODE":279.6261,"ARG_OF_PERICENTER":155.1951,"MEAN_ANOMALY":204.9521,"EPHEMERIS_TYPE":0,"NORAD_CAT_ID":60494,"ELEMENT_SET_NO":999,"REV_AT_EPOCH":10655,"BSTAR":0.00023226384,"MEAN_MOTION_DOT":0.0000981,"MEAN_MOTION_DDOT":0},{"OBJECT_NAME":"FLOCK 4BE-34","OBJECT_ID":"2024-149AD","EPOCH":"2026-07-14T17:48:28.027584","CLASSIFICATION_TYPE":"U","MEAN_MOTION":15.41941902,"ECCENTRICITY":0.00048978,"INCLINATION":97.3784,"RA_OF_ASC_NODE":280.4181,"ARG_OF_PERICENTER":162.5378,"MEAN_ANOMALY":197.6038,"EPHEMERIS_TYPE":0,"NORAD_CAT_ID":60495,"ELEMENT_SET_NO":999,"REV_AT_EPOCH":10657,"BSTAR":0.00022976255,"MEAN_MOTION_DOT":0.00009692,"MEAN_MOTION_DDOT":0},{"OBJECT_NAME":"FLOCK 4BE-32","OBJECT_ID":"2024-149AF","EPOCH":"2026-07-14T19:42:34.447392","CLASSIFICATION_TYPE":"U","MEAN_MOTION":15.43077567,"ECCENTRICITY":0.00049219,"INCLINATION":97.3719,"RA_OF_ASC_NODE":280.0638,"ARG_OF_PERICENTER":160.4428,"MEAN_ANOMALY":199.7009,"EPHEMERIS_TYPE":0,"NORAD_CAT_ID":60497,"ELEMENT_SET_NO":999,"REV_AT_EPOCH":10659,"BSTAR":0.0002430271,"MEAN_MOTION_DOT":0.00010656,"MEAN_MOTION_DDOT":0},{"OBJECT_NAME":"FLOCK 4BE-11","OBJECT_ID":"2024-149AK","EPOCH":"2026-07-14T05:14:04.729920","CLASSIFICATION_TYPE":"U","MEAN_MOTION":15.43855222,"ECCENTRICITY":0.00047588,"INCLINATION":97.3704,"RA_OF_ASC_NODE":279.709,"ARG_OF_PERICENTER":161.2091,"MEAN_ANOMALY":198.9333,"EPHEMERIS_TYPE":0,"NORAD_CAT_ID":60501,"ELEMENT_SET_NO":999,"REV_AT_EPOCH":10652,"BSTAR":0.00024793611,"MEAN_MOTION_DOT":0.00011163,"MEAN_MOTION_DDOT":0},{"OBJECT_NAME":"FLOCK 4BE-24","OBJECT_ID":"2024-149AP","EPOCH":"2026-07-14T18:50:40.668288","CLASSIFICATION_TYPE":"U","MEAN_MOTION":15.44090722,"ECCENTRICITY":0.00051365,"INCLINATION":97.3715,"RA_OF_ASC_NODE":280.5518,"ARG_OF_PERICENTER":171.5537,"MEAN_ANOMALY":188.5798,"EPHEMERIS_TYPE":0,"NORAD_CAT_ID":60505,"ELEMENT_SET_NO":999,"REV_AT_EPOCH":10662,"BSTAR":0.00028334542,"MEAN_MOTION_DOT":0.00012876,"MEAN_MOTION_DDOT":0},{"OBJECT_NAME":"FLOCK 4BE-29","OBJECT_ID":"2024-149AT","EPOCH":"2026-07-14T18:38:09.933504","CLASSIFICATION_TYPE":"U","MEAN_MOTION":15.45454725,"ECCENTRICITY":0.0003493,"INCLINATION":97.3816,"RA_OF_ASC_NODE":282.0842,"ARG_OF_PERICENTER":177.0482,"MEAN_ANOMALY":183.0788,"EPHEMERIS_TYPE":0,"NORAD_CAT_ID":60509,"ELEMENT_SET_NO":999,"REV_AT_EPOCH":10667,"BSTAR":0.00058284159,"MEAN_MOTION_DOT":0.00027884,"MEAN_MOTION_DDOT":0},{"OBJECT_NAME":"FLOCK 4BE-2","OBJECT_ID":"2024-149AV","EPOCH":"2026-07-14T19:22:28.061472","CLASSIFICATION_TYPE":"U","MEAN_MOTION":15.55865186,"ECCENTRICITY":0.00053281,"INCLINATION":97.3835,"RA_OF_ASC_NODE":283.9535,"ARG_OF_PERICENTER":174.8073,"MEAN_ANOMALY":185.3238,"EPHEMERIS_TYPE":0,"NORAD_CAT_ID":60511,"ELEMENT_SET_NO":999,"REV_AT_EPOCH":10679,"BSTAR":0.00058455568,"MEAN_MOTION_DOT":0.00040514,"MEAN_MOTION_DDOT":0},{"OBJECT_NAME":"FLOCK 4BE-13","OBJECT_ID":"2024-149AW","EPOCH":"2026-07-14T19:05:57.996096","CLASSIFICATION_TYPE":"U","MEAN_MOTION":15.42609969,"ECCENTRICITY":0.00050512,"INCLINATION":97.3724,"RA_OF_ASC_NODE":280.5068,"ARG_OF_PERICENTER":156.8857,"MEAN_ANOMALY":203.2618,"EPHEMERIS_TYPE":0,"NORAD_CAT_ID":60512,"ELEMENT_SET_NO":999,"REV_AT_EPOCH":10662,"BSTAR":0.00020503608,"MEAN_MOTION_DOT":0.00008835,"MEAN_MOTION_DDOT":0},{"OBJECT_NAME":"FLOCK 4BE-27","OBJECT_ID":"2024-149AX","EPOCH":"2026-07-14T23:17:34.546272","CLASSIFICATION_TYPE":"U","MEAN_MOTION":15.34915043,"ECCENTRICITY":0.00039519,"INCLINATION":97.3825,"RA_OF_ASC_NODE":277.8425,"ARG_OF_PERICENTER":181.7935,"MEAN_ANOMALY":178.3295,"EPHEMERIS_TYPE":0,"NORAD_CAT_ID":60513,"ELEMENT_SET_NO":999,"REV_AT_EPOCH":10640,"BSTAR":0.00017416909,"MEAN_MOTION_DOT":0.00005817,"MEAN_MOTION_DDOT":0},{"OBJECT_NAME":"FLOCK 4BE-9","OBJECT_ID":"2024-149AY","EPOCH":"2026-07-14T19:31:51.538080","CLASSIFICATION_TYPE":"U","MEAN_MOTION":15.4159012,"ECCENTRICITY":0.00036753,"INCLINATION":97.3795,"RA_OF_ASC_NODE":280.3674,"ARG_OF_PERICENTER":172.2944,"MEAN_ANOMALY":187.836,"EPHEMERIS_TYPE":0,"NORAD_CAT_ID":60514,"ELEMENT_SET_NO":999,"REV_AT_EPOCH":10657,"BSTAR":0.00023617487,"MEAN_MOTION_DOT":0.00009847,"MEAN_MOTION_DDOT":0},{"OBJECT_NAME":"FLOCK 4BE-6","OBJECT_ID":"2024-149BA","EPOCH":"2026-07-14T20:45:32.879232","CLASSIFICATION_TYPE":"U","MEAN_MOTION":15.4030952,"ECCENTRICITY":0.00042107,"INCLINATION":97.3792,"RA_OF_ASC_NODE":279.7241,"ARG_OF_PERICENTER":173.8234,"MEAN_ANOMALY":186.3065,"EPHEMERIS_TYPE":0,"NORAD_CAT_ID":60516,"ELEMENT_SET_NO":999,"REV_AT_EPOCH":10653,"BSTAR":0.00021733863,"MEAN_MOTION_DOT":0.00008677,"MEAN_MOTION_DDOT":0},{"OBJECT_NAME":"FLOCK 4BE-14","OBJECT_ID":"2024-149BB","EPOCH":"2026-07-14T18:10:31.949472","CLASSIFICATION_TYPE":"U","MEAN_MOTION":15.41845157,"ECCENTRICITY":0.0005439,"INCLINATION":97.3695,"RA_OF_ASC_NODE":279.7787,"ARG_OF_PERICENTER":178.1832,"MEAN_ANOMALY":181.9436,"EPHEMERIS_TYPE":0,"NORAD_CAT_ID":60517,"ELEMENT_SET_NO":999,"REV_AT_EPOCH":10657,"BSTAR":0.00023874405,"MEAN_MOTION_DOT":0.00010043,"MEAN_MOTION_DDOT":0},{"OBJECT_NAME":"FLOCK 4BE-1","OBJECT_ID":"2024-149BC","EPOCH":"2026-07-14T05:24:43.804800","CLASSIFICATION_TYPE":"U","MEAN_MOTION":15.43488673,"ECCENTRICITY":0.00049796,"INCLINATION":97.3783,"RA_OF_ASC_NODE":280.6171,"ARG_OF_PERICENTER":179.2979,"MEAN_ANOMALY":180.8277,"EPHEMERIS_TYPE":0,"NORAD_CAT_ID":60518,"ELEMENT_SET_NO":999,"REV_AT_EPOCH":10654,"BSTAR":0.00025666723,"MEAN_MOTION_DOT":0.00011418,"MEAN_MOTION_DDOT":0},{"OBJECT_NAME":"FLOCK 4BE-28","OBJECT_ID":"2024-149BD","EPOCH":"2026-07-14T18:43:17.058720","CLASSIFICATION_TYPE":"U","MEAN_MOTION":15.46268977,"ECCENTRICITY":0.00051343,"INCLINATION":97.3749,"RA_OF_ASC_NODE":281.9929,"ARG_OF_PERICENTER":176.4962,"MEAN_ANOMALY":183.6324,"EPHEMERIS_TYPE":0,"NORAD_CAT_ID":60519,"ELEMENT_SET_NO":999,"REV_AT_EPOCH":10670,"BSTAR":0.00056785099,"MEAN_MOTION_DOT":0.00027939,"MEAN_MOTION_DDOT":0},{"OBJECT_NAME":"FLOCK 4BE-5","OBJECT_ID":"2024-149CV","EPOCH":"2026-07-14T18:15:06.468192","CLASSIFICATION_TYPE":"U","MEAN_MOTION":15.41034227,"ECCENTRICITY":0.00040427,"INCLINATION":97.3847,"RA_OF_ASC_NODE":280.0394,"ARG_OF_PERICENTER":172.4274,"MEAN_ANOMALY":187.7034,"EPHEMERIS_TYPE":0,"NORAD_CAT_ID":60559,"ELEMENT_SET_NO":999,"REV_AT_EPOCH":10652,"BSTAR":0.00022504602,"MEAN_MOTION_DOT":0.00009207,"MEAN_MOTION_DDOT":0}]}
