FLOCK 4BE-17            
1 60492U 24149AA  26195.76788800  .00009370  00000+0  23257-3 0  9998
2 60492  97.3775 279.3683 0004412 147.9048 212.2467 15.40562129106504
FLOCK 4BE-22            
1 60494U 24149AC  26195.78933226  .00009810  00000+0  23226-3 0  9991
2 60494  97.3735 279.6261 0004659 155.1951 204.9521 15.41978086106552
FLOCK 4BE-34            
1 60495U 24149AD  26195.74199106  .00009692  00000+0  22976-3 0  9998
2 60495  97.3784 280.4181 0004897 162.5378 197.6038 15.41941902106577
FLOCK 4BE-32            
1 60497U 24149AF  26195.82123203  .00010656  00000+0  24303-3 0  9992
2 60497  97.3719 280.0638 0004921 160.4428 199.7009 15.43077567106593
FLOCK 4BE-11            
1 60501U 24149AK  26195.21811030  .00011163  00000+0  24794-3 0  9991
2 60501  97.3704 279.7090 0004758 161.2091 198.9333 15.43855222106529
FLOCK 4BE-24            
1 60505U 24149AP  26195.78519292  .00012876  00000+0  28335-3 0  9999
2 60505  97.3715 280.5518 0005136 171.5537 188.5798 15.44090722106628
FLOCK 4BE-29            
1 60509U 24149AT  26195.77650386  .00027884  00000+0  58284-3 0  9993
2 60509  97.3816 282.0842 0003493 177.0482 183.0788 15.45454725106677
FLOCK 4BE-2             
1 60511U 24149AV  26195.80726923  .00040514  00000+0  58456-3 0  9997
2 60511  97.3835 283.9535 0005328 174.8073 185.3238 15.55865186106796
FLOCK 4BE-13            
1 60512U 24149AW  26195.79581014  .00008835  00000+0  20504-3 0  9999
2 60512  97.3724 280.5068 0005051 156.8857 203.2618 15.42609969106626
FLOCK 4BE-27            
1 60513U 24149AX  26195.97053873  .00005817  00000+0  17417-3 0  9993
2 60513  97.3825 277.8425 0003951 181.7935 178.3295 15.34915043106409
FLOCK 4BE-9             
1 60514U 24149AY  26195.81379095  .00009847  00000+0  23617-3 0  9990
2 60514  97.3795 280.3674 0003675 172.2944 187.8360 15.41590120106578
FLOCK 4BE-6             
1 60516U 24149BA  26195.86496388  .00008677  00000+0  21734-3 0  9990
2 60516  97.3792 279.7241 0004210 173.8234 186.3065 15.40309520106537
FLOCK 4BE-14            
1 60517U 24149BB  26195.75731423  .00010043  00000+0  23874-3 0  9998
2 60517  97.3695 279.7787 0005439 178.1832 181.9436 15.41845157106570
FLOCK 4BE-1             
1 60518U 24149BC  26195.22550700  .00011418  00000+0  25667-3 0  9997
2 60518  97.3783 280.6171 0004979 179.2979 180.8277 15.43488673106545
FLOCK 4BE-28            
1 60519U 24149BD  26195.78005855  .00027939  00000+0  56785-3 0  9995
2 60519  97.3749 281.9929 0005134 176.4962 183.6324 15.46268977106706
FLOCK 4BE-5             
1 60559U 24149CV  26195.76049153  .00009207  00000+0  22505-3 0  9997
2 60559  97.3847 280.0394 0004042 172.4274 187.7034 15.41034227106521
